COSMOS 1933             
1 18958U 88020A   26055.53982138  .00003512  00000+0  17205-3 0  9994
2 18958  82.5099 263.9243 0002753 237.0172 123.0797 15.17850147 48239
SL-3 R/B                
1 19046U 88032B   26055.56467581  .00005991  00000+0  28153-3 0  9996
2 19046  97.5175  38.8663 0024145 280.9066  78.9452 15.19727899 50117
SL-16 R/B               
1 19120U 88039B   26055.52193288 -.00000026  00000+0  10559-4 0  9999
2 19120  71.0133  96.3937 0021970 353.9906   6.0952 14.19613687956515
COSMOS 1953             
1 19210U 88050A   26055.40053489  .00009508  00000+0  34362-3 0  9997
2 19210  82.5097 171.6049 0011700 166.3055 193.8505 15.28248976 35752
SL-8 R/B                
1 19257U 88053B   26055.52428703  .00000230  00000+0  83207-4 0  9995
2 19257  74.0480 136.7329 0021028 318.0854 144.5691 14.38907039974703
COSMOS 1975             
1 19573U 88093A   26055.23400848  .00007867  00000+0  28793-3 0  9999
2 19573  82.5204 131.1881 0010939 211.1961 148.8630 15.27827522 17351
SL-14 R/B               
1 19574U 88093B   26055.53978089  .00000520  00000+0  56927-4 0  9990
2 19574  82.5283  54.3904 0022331  82.2902  38.9718 14.85638416999082
SL-16 R/B               
1 19650U 88102B   26055.62554282 -.00000241  00000+0 -97375-4 0  9995
2 19650  71.0002 178.9825 0013196  21.5342 338.6334 14.16150948925049
INTERCOSMOS 24          
1 20261U 89080A   26055.53801517  .00000604  00000+0  17807-3 0  9999
2 20261  82.6044 112.9674 1187097 323.3752  29.1559 12.59535688665140
SL-14 R/B               
1 20262U 89080C   26055.59263705  .00000598  00000+0  17862-3 0  9990
2 20262  82.5968 181.5919 1230043 214.6853 136.7752 12.50474356658511
DELTA 1 R/B             
1 20323U 89089B   26055.51530285  .00000317  00000+0  87067-4 0  9993
2 20323  97.0714 265.0487 0069542 163.1254 197.2281 14.50650688893823
ARIANE 40 R/B           
1 20443U 90005H   26055.19322781  .00000233  00000+0  87525-4 0  9996
2 20443  98.3115 116.2549 0009107 241.5792 118.4479 14.39860434890864
